{
  "norad_id": 68101,
  "name": "STARLINK-37022",
  "history": [
    {
      "epoch": "2026-03-28T21:36:05.126112",
      "apogee_km": 349.4872158902517,
      "perigee_km": 347.62553623149233,
      "latitude_deg": 22.221762174658554,
      "longitude_deg": -3.49430431984365,
      "semi_major_axis_km": 6726.693376060872,
      "eccentricity": 0.00013838,
      "inclination_deg": 97.2838,
      "raan_deg": 48.9789,
      "arg_perigee_deg": 17.9984,
      "mean_anomaly_deg": 342.1329,
      "mean_motion_rev_day": 15.73621623
    },
    {
      "epoch": "2026-03-29T04:00:01.999584",
      "apogee_km": 354.1779153404286,
      "perigee_km": 351.9256595721463,
      "latitude_deg": 64.41600837866116,
      "longitude_deg": 22.102221759967506,
      "semi_major_axis_km": 6731.188787456287,
      "eccentricity": 0.0001673,
      "inclination_deg": 97.2838,
      "raan_deg": 49.2571,
      "arg_perigee_deg": 92.1687,
      "mean_anomaly_deg": 336.4186,
      "mean_motion_rev_day": 15.72045476
    }
  ]
}